[{"OBJECT_NAME":"FLOCK 4BE-35","OBJECT_ID":"2024-149CU","EPOCH":"2026-03-05T18:04:36.722784","MEAN_MOTION":15.42792648,"ECCENTRICITY":0.00046034,"INCLINATION":97.3793,"RA_OF_ASC_NODE":147.946,"ARG_OF_PERICENTER":271.8716,"MEAN_ANOMALY":88.2004,"EPHEMERIS_TYPE":0,"CLASSIFICATION_TYPE":"U","NORAD_CAT_ID":60558,"ELEMENT_SET_NO":999,"REV_AT_EPOCH":8639,"BSTAR":0.0022463644,"MEAN_MOTION_DOT":0.00099392,"MEAN_MOTION_DDOT":0},{"OBJECT_NAME":"FLOCK 4BE-5","OBJECT_ID":"2024-149CV","EPOCH":"2026-03-05T15:00:24.035616","MEAN_MOTION":15.36821928,"ECCENTRICITY":0.00024884,"INCLINATION":97.3885,"RA_OF_ASC_NODE":147.8684,"ARG_OF_PERICENTER":311.3063,"MEAN_ANOMALY":48.7966,"EPHEMERIS_TYPE":0,"CLASSIFICATION_TYPE":"U","NORAD_CAT_ID":60559,"ELEMENT_SET_NO":999,"REV_AT_EPOCH":8635,"BSTAR":0.00069689326,"MEAN_MOTION_DOT":0.00025051,"MEAN_MOTION_DDOT":0},{"OBJECT_NAME":"FLOCK 4BE-12","OBJECT_ID":"2024-149CW","EPOCH":"2026-03-05T17:13:50.179296","MEAN_MOTION":15.45706277,"ECCENTRICITY":0.000573,"INCLINATION":97.3766,"RA_OF_ASC_NODE":148.621,"ARG_OF_PERICENTER":275.9896,"MEAN_ANOMALY":84.07,"EPHEMERIS_TYPE":0,"CLASSIFICATION_TYPE":"U","NORAD_CAT_ID":60560,"ELEMENT_SET_NO":999,"REV_AT_EPOCH":8645,"BSTAR":0.0023602674,"MEAN_MOTION_DOT":0.00115489,"MEAN_MOTION_DDOT":0},{"OBJECT_NAME":"FLOCK 4BE-3","OBJECT_ID":"2024-149CX","EPOCH":"2026-03-05T16:42:25.627680","MEAN_MOTION":15.38018337,"ECCENTRICITY":0.00031005,"INCLINATION":97.3749,"RA_OF_ASC_NODE":147.8633,"ARG_OF_PERICENTER":297.8813,"MEAN_ANOMALY":62.2118,"EPHEMERIS_TYPE":0,"CLASSIFICATION_TYPE":"U","NORAD_CAT_ID":60561,"ELEMENT_SET_NO":999,"REV_AT_EPOCH":8641,"BSTAR":0.00058311,"MEAN_MOTION_DOT":0.00021766,"MEAN_MOTION_DDOT":0},{"OBJECT_NAME":"FLOCK 4BE-19","OBJECT_ID":"2024-149CZ","EPOCH":"2026-03-05T18:33:41.702112","MEAN_MOTION":15.40139093,"ECCENTRICITY":0.00031801,"INCLINATION":97.3788,"RA_OF_ASC_NODE":149.0313,"ARG_OF_PERICENTER":303.4427,"MEAN_ANOMALY":56.6515,"EPHEMERIS_TYPE":0,"CLASSIFICATION_TYPE":"U","NORAD_CAT_ID":60563,"ELEMENT_SET_NO":999,"REV_AT_EPOCH":8648,"BSTAR":0.00065420937,"MEAN_MOTION_DOT":0.00026197,"MEAN_MOTION_DDOT":0},{"OBJECT_NAME":"PELICAN-2","OBJECT_ID":"2025-009Y","EPOCH":"2026-03-05T16:45:29.676096","MEAN_MOTION":15.40324673,"ECCENTRICITY":0.00065799,"INCLINATION":97.4024,"RA_OF_ASC_NODE":154.9572,"ARG_OF_PERICENTER":224.6582,"MEAN_ANOMALY":135.4135,"EPHEMERIS_TYPE":0,"CLASSIFICATION_TYPE":"U","NORAD_CAT_ID":62631,"ELEMENT_SET_NO":999,"REV_AT_EPOCH":6362,"BSTAR":0.0018878047,"MEAN_MOTION_DOT":0.00076756,"MEAN_MOTION_DDOT":0},{"OBJECT_NAME":"PELICAN-3","OBJECT_ID":"2025-188A","EPOCH":"2026-03-05T17:07:05.537856","MEAN_MOTION":15.40564096,"ECCENTRICITY":0.00041584,"INCLINATION":97.2228,"RA_OF_ASC_NODE":142.3055,"ARG_OF_PERICENTER":178.3529,"MEAN_ANOMALY":181.7732,"EPHEMERIS_TYPE":0,"CLASSIFICATION_TYPE":"U","NORAD_CAT_ID":65315,"ELEMENT_SET_NO":999,"REV_AT_EPOCH":2938,"BSTAR":0.0010509511,"MEAN_MOTION_DOT":0.00042826,"MEAN_MOTION_DDOT":0},{"OBJECT_NAME":"PELICAN-4","OBJECT_ID":"2025-188B","EPOCH":"2026-03-05T11:15:25.409376","MEAN_MOTION":15.40622405,"ECCENTRICITY":0.00034812,"INCLINATION":97.2316,"RA_OF_ASC_NODE":142.1564,"ARG_OF_PERICENTER":108.559,"MEAN_ANOMALY":251.6035,"EPHEMERIS_TYPE":0,"CLASSIFICATION_TYPE":"U","NORAD_CAT_ID":65316,"ELEMENT_SET_NO":999,"REV_AT_EPOCH":2934,"BSTAR":0.00022531044,"MEAN_MOTION_DOT":9.095e-5,"MEAN_MOTION_DDOT":0}]
