FLOCK 4BE-35            
1 60558U 24149CU  26064.75320281  .00099392  00000+0  22464-2 0  9991
2 60558  97.3793 147.9460 0004603 271.8716  88.2004 15.42792648 86396
FLOCK 4BE-5             
1 60559U 24149CV  26064.62527819  .00025051  00000+0  69689-3 0  9996
2 60559  97.3885 147.8684 0002488 311.3063  48.7966 15.36821928 86351
FLOCK 4BE-12            
1 60560U 24149CW  26064.71794189  .00115489  00000+0  23603-2 0  9994
2 60560  97.3766 148.6210 0005730 275.9896  84.0700 15.45706277 86456
FLOCK 4BE-3             
1 60561U 24149CX  26064.69612995  .00021766  00000+0  58311-3 0  9995
2 60561  97.3749 147.8633 0003100 297.8813  62.2118 15.38018337 86411
FLOCK 4BE-19            
1 60563U 24149CZ  26064.77339933  .00026197  00000+0  65421-3 0  9997
2 60563  97.3788 149.0313 0003180 303.4427  56.6515 15.40139093 86489
PELICAN-2               
1 62631U 25009Y   26064.69826014  .00076756  00000+0  18878-2 0  9992
2 62631  97.4024 154.9572 0006579 224.6582 135.4135 15.40324673 63629
PELICAN-3               
1 65315U 25188A   26064.71325854  .00042826  00000+0  10510-2 0  9997
2 65315  97.2228 142.3055 0004158 178.3529 181.7732 15.40564096 29386
PELICAN-4               
1 65316U 25188B   26064.46904409  .00009095  00000+0  22531-3 0  9997
2 65316  97.2316 142.1564 0003481 108.5590 251.6035 15.40622405 29347
